[{"OBJECT_NAME":"STARLINK-6376","OBJECT_ID":"2023-099X","EPOCH":"2026-03-09T22:00:01.999584","MEAN_MOTION":15.14373336,"ECCENTRICITY":0.00016799,"INCLINATION":42.9997,"RA_OF_ASC_NODE":246.8696,"ARG_OF_PERICENTER":215.6032,"MEAN_ANOMALY":44.7192,"EPHEMERIS_TYPE":0,"CLASSIFICATION_TYPE":"U","NORAD_CAT_ID":57349,"ELEMENT_SET_NO":999,"REV_AT_EPOCH":578,"BSTAR":0.0065474134,"MEAN_MOTION_DOT":0.00124192,"MEAN_MOTION_DDOT":0},{"OBJECT_NAME":"COSMOS 2251 DEB","OBJECT_ID":"1993-036BVC","EPOCH":"2026-03-08T13:24:38.540160","MEAN_MOTION":15.16391326,"ECCENTRICITY":0.00101636,"INCLINATION":73.9321,"RA_OF_ASC_NODE":270.6184,"ARG_OF_PERICENTER":99.0936,"MEAN_ANOMALY":292.9864,"EPHEMERIS_TYPE":0,"CLASSIFICATION_TYPE":"U","NORAD_CAT_ID":40223,"ELEMENT_SET_NO":999,"REV_AT_EPOCH":60669,"BSTAR":0.0066493661,"MEAN_MOTION_DOT":0.00131678,"MEAN_MOTION_DDOT":0}]
